GLOBALSTAR M063 [+]     
1 26081U 00008A   24070.96364912 -.00000082  00000+0  12252-4 0  9994
2 26081  51.9927 251.5178 0005328 138.2961  30.1865 11.86151942102609
GLOBALSTAR M062 [-]     
1 26082U 00008B   24070.57796718 -.00000128  00000+0 -21190-3 0  9997
2 26082  51.9874  19.0756 0006757 200.4195 330.7639 12.43429414438941
GLOBALSTAR M060 [-]     
1 26083U 00008C   24070.85275017 -.00000090  00000+0  10663-4 0  9994
2 26083  52.0006 272.7303 0002433 264.2821 201.3225 12.17628349 95928
GLOBALSTAR M064 [-]     
1 26084U 00008D   24070.91989106 -.00000069  00000+0  19774-3 0  9990
2 26084  52.0066 355.9232 0000935 249.1669 110.9064 11.88515888112013
GLOBALSTAR M065 [+]     
1 31571U 07020A   24070.75589925 -.00000087  00000+0  94789-4 0  9995
2 31571  51.9878 196.7494 0010104   5.2310 142.5013 12.61964215774892
GLOBALSTAR M071 [P]     
1 31576U 07020F   24070.53289722 -.00000050  00000+0  30279-3 0  9991
2 31576  52.0057 158.4706 0001511 160.0379 212.7195 12.62268774437183
